        SPCS","OBJECT_NAME":"STARLINK-2424","OBJECT_ID":"2021-018AZ","CENTER_NAME":"EARTH","REF_FRAME":"TEME","TIME_SYSTEM":"UTC","MEAN_ELEMENT_THEORY":"SGP4","EPOCH":"2021-04-21T20:00:01.999872","MEAN_MOTION":15.71744902,"ECCENTRICITY":0.0001216,"INCLINATION":53.0496,"RA_OF_ASC_NODE":341.8422,"ARG_OF_PERICENTER":104.278,"MEAN_ANOMALY":90.9877,"EPHEMERIS_TYPE":0,"CLASSIFICATION_TYPE":"U","NORAD_CAT_ID":47834,"ELEMENT_SET_NO":999,"REV_AT_EPOCH":744,"BSTAR":-0.0091938,"MEAN_MOTION_DOT":-0.01087209,"MEAN_MOTION_DDOT":0,"SEMIMAJOR_AXIS":6732.047,"PERIOD":91.618,"APOAPSIS":354.731,"PERIAPSIS":353.093,"OBJECT_TYPE":"PAYLOAD","RCS_SIZE":"LARGE","COUNTRY_CODE":"US","LAUNCH_DATE":"2021-03-11","SITE":"AFETR","DECAY_DATE":null,"DECAYED":0,"FILE":3022682,"GP_ID":175892554,"TLE_LINE0":"0
        STARLINK-2424","TLE_LINE1":"1 47834U 21018AZ  21111.83335648 -.01087209  00000-0
        -91938-2 0  9995","TLE_LINE2":"2 47834  53.0496 341.8422 0001216 104.2780  90.9877
        15.71744902  7446"},"version":"v1.0","launch":"600f9a718f798e2a4d5f979d","longitude":54.45216021404885,"latitude":-38.71114545755458,"height_km":369.0931896822103,"velocity_kms":7.687386576023059,"id":"6053aba57554c9000609a669"},{"spaceTrack":{"CCSDS_OMM_VERS":"2.0","COMMENT":"GENERATED
        VIA SPACE-TRACK.ORG API","CREATION_DATE":"2021-04-21T22:36:12","ORIGINATOR":"18
        SPCS","OBJECT_NAME":"STARLINK-2257","OBJECT_ID":"2021-018A","CENTER_NAME":"EARTH","REF_FRAME":"TEME","TIME_SYSTEM":"UTC","MEAN_ELEMENT_THEORY":"SGP4","EPOCH":"2021-04-21T20:00:01.999872","MEAN_MOTION":15.73035904,"ECCENTRICITY":0.0001316,"INCLINATION":53.0508,"RA_OF_ASC_NODE":341.8204,"ARG_OF_PERICENTER":81.4619,"MEAN_ANOMALY":121.3567,"EPHEMERIS_TYPE":0,"CLASSIFICATION_TYPE":"U","NORAD_CAT_ID":47787,"ELEMENT_SET_NO":999,"REV_AT_EPOCH":744,"BSTAR":-0.0075458,"MEAN_MOTION_DOT":-0.00956181,"MEAN_MOTION_DDOT":0,"SEMIMAJOR_AXIS":6728.363,"PERIOD":91.543,"APOAPSIS":351.114,"PERIAPSIS":349.343,"OBJECT_TYPE":"PAYLOAD","RCS_SIZE":"LARGE","COUNTRY_CODE":"US","LAUNCH_DATE":"2021-03-11","SITE":"AFETR","DECAY_DATE":null,"DECAYED":0,"FILE":3022580,"GP_ID":175890301,"TLE_LINE0":"0
        STARLINK-2257","TLE_LINE1":"1 47787U 21018A   21111.83335648 -.00956181  00000-0
        -75458-2 0  9994","TLE_LINE2":"2 47787  53.0508 341.8204 0001316  81.4619
        121.3567 15.73035904  7445"},"version":"v1.0","launch":"600f9a718f798e2a4d5f979d","longitude":62.41261125914264,"latitude":-32.83168145976486,"height_km":362.5534433368739,"velocity_kms":7.691324732356628,"id":"6053aba67554c9000609a66a"},{"spaceTrack":{"CCSDS_OMM_VERS":"2.0","COMMENT":"GENERATED
        VIA SPACE-TRACK.ORG API","CREATION_DATE":"2021-04-21T19:20:26","ORIGINATOR":"18
        SPCS","OBJECT_NAME":"STARLINK-2314","OBJECT_ID":"2021-018B","CENTER_NAME":"EARTH","REF_FRAME":"TEME","TIME_SYSTEM":"UTC","MEAN_ELEMENT_THEORY":"SGP4","EPOCH":"2021-04-21T14:00:01.000224","MEAN_MOTION":15.73213574,"ECCENTRICITY":0.0001135,"INCLINATION":53.0507,"RA_OF_ASC_NODE":343.1085,"ARG_OF_PERICENTER":101.1115,"MEAN_ANOMALY":97.479,"EPHEMERIS_TYPE":0,"CLASSIFICATION_TYPE":"U","NORAD_CAT_ID":47788,"ELEMENT_SET_NO":999,"REV_AT_EPOCH":188,"BSTAR":-0.0000019182,"MEAN_MOTION_DOT":-0.0000089,"MEAN_MOTION_DDOT":0,"SEMIMAJOR_AXIS":6727.856,"PERIOD":91.532,"APOAPSIS":350.485,"PERIAPSIS":348.958,"OBJECT_TYPE":"PAYLOAD","RCS_SIZE":"LARGE","COUNTRY_CODE":"US","LAUNCH_DATE":"2021-03-11","SITE":"AFETR","DECAY_DATE":null,"DECAYED":0,"FILE":3022491,"GP_ID":175887227,"TLE_LINE0":"0
        STARLINK-2314","TLE_LINE1":"1 47788U 21018B   21111.58334491 -.00000890  00000-0
        -19182-5 0  9994","TLE_LINE2":"2 47788  53.0507 343.1085 0001135 101.1115  97.4790
        15.73213574  1881"},"version":"v1.0","launch":"600f9a718f798e2a4d5f979d","longitude":33.388052825518606,"latitude":-48.56375323406261,"height_km":367.1079878136734,"velocity_kms":7.688436041475766,"id":"6053aba57554c9000609a668"},{"spaceTrack":{"CCSDS_OMM_VERS":"2.0","COMMENT":"GENERATED
        VIA SPACE-TRACK.ORG API","CREATION_DATE":"2021-04-21T22:36:12","ORIGINATOR":"18
        SPCS","OBJECT_NAME":"STARLINK-2389","OBJECT_ID":"2021-018X","CENTER_NAME":"EARTH","REF_FRAME":"TEME","TIME_SYSTEM":"UTC","MEAN_ELEMENT_THEORY":"SGP4","EPOCH":"2021-04-21T20:00:01.999872","MEAN_MOTION":15.73266531,"ECCENTRICITY":0.0001163,"INCLINATION":53.0492,"RA_OF_ASC_NODE":341.8402,"ARG_OF_PERICENTER":82.2362,"MEAN_ANOMALY":107.9519,"EPHEMERIS_TYPE":0,"CLASSIFICATION_TYPE":"U","NORAD_CAT_ID":47808,"ELEMENT_SET_NO":999,"REV_AT_EPOCH":744,"BSTAR":-0.00061653,"MEAN_MOTION_DOT":-0.00086521,"MEAN_MOTION_DDOT":0,"SEMIMAJOR_AXIS":6727.705,"PERIOD":91.529,"APOAPSIS":350.353,"PERIAPSIS":348.788,"OBJECT_TYPE":"PAYLOAD","RCS_SIZE":"LARGE","COUNTRY_CODE":"US","LAUNCH_DATE":"2021-03-11","SITE":"AFETR","DECAY_DATE":null,"DECAYED":0,"FILE":3022590,"GP_ID":175890462,"TLE_LINE0":"0
        STARLINK-2389","TLE_LINE1":"1 47808U 21018X   21111.83335648 -.00086521  00000-0
        -61653-3 0  9993","TLE_LINE2":"2 47808  53.0492 341.8402 0001163  82.2362
        107.9519 15.73266531  7444"},"version":"v1.0","launch":"600f9a718f798e2a4d5f979d","longitude":51.14782819070574,"latitude":-40.75122073594668,"height_km":363.72246334052943,"velocity_kms":7.690501244413922,"id":"6053aba67554c9000609a66d"},{"spaceTrack":{"CCSDS_OMM_VERS":"2.0","COMMENT":"GENERATED
        VIA SPACE-TRACK.ORG API","CREATION_DATE":"2021-04-21T19:20:26","ORIGINATOR":"18
        SPCS","OBJECT_NAME":"STARLINK-2334","OBJECT_ID":"2021-018F","CENTER_NAME":"EARTH","REF_FRAME":"TEME","TIME_SYSTEM":"UTC","MEAN_ELEMENT_THEORY":"SGP4","EPOCH":"2021-04-21T14:00:01.000224","MEAN_MOTION":15.73213473,"ECCENTRICITY":0.0001157,"INCLINATION":53.0499,"RA_OF_ASC_NODE":343.0829,"ARG_OF_PERICENTER":106.6556,"MEAN_ANOMALY":104.0162,"EPHEMERIS_TYPE":0,"CLASSIFICATION_TYPE":"U","NORAD_CAT_ID":47792,"ELEMENT_SET_NO":999,"REV_AT_EPOCH":187,"BSTAR":-0.0000017096,"MEAN_MOTION_DOT":-0.0000086,"MEAN_MOTION_DDOT":0,"SEMIMAJOR_AXIS":6727.857,"PERIOD":91.532,"APOAPSIS":350.5,"PERIAPSIS":348.943,"OBJECT_TYPE":"PAYLOAD","RCS_SIZE":"LARGE","COUNTRY_CODE":"US","LAUNCH_DATE":"2021-03-11","SITE":"AFETR","DECAY_DATE":null,"DECAYED":0,"FILE":3022491,"GP_ID":175887727,"TLE_LINE0":"0
        STARLINK-2334","TLE_LINE1":"1 47792U 21018F   21111.58334491 -.00000860  00000-0
        -17096-5 0  9998","TLE_LINE2":"2 47792  53.0499 343.0829 0001157 106.6556
        104.0162 15.73213473  1879"},"version":"v1.0","launch":"600f9a718f798e2a4d5f979d","longitude":48.081358518488614,"latitude":-42.46806706141674,"height_km":364.6242644912363,"velocity_kms":7.689872519885734,"id":"6053aba67554c9000609a66f"},{"spaceTrack":{"CCSDS_OMM_VERS":"2.0","COMMENT":"GENERATED
        VIA SPACE-TRACK.ORG API","CREATION_DATE":"2021-04-21T19:20:26","ORIGINATOR":"18
        SPCS","OBJECT_NAME":"STARLINK-2423","OBJECT_ID":"2021-018AY","CENTER_NAME":"EARTH","REF_FRAME":"TEME","TIME_SYSTEM":"UTC","MEAN_ELEMENT_THEORY":"SGP4","EPOCH":"2021-04-21T14:00:01.000224","MEAN_MOTION":15.72809105,"ECCENTRICITY":0.000116,"INCLINATION":53.0489,"RA_OF_ASC_NODE":343.0679,"ARG_OF_PERICENTER":77.947,"MEAN_ANOMALY":144.7525,"EPHEMERIS_TYPE":0,"CLASSIFICATION_TYPE":"U","NORAD_CAT_ID":47833,"ELEMENT_SET_NO":999,"REV_AT_EPOCH":182,"BSTAR":-0.0082585,"MEAN_MOTION_DOT":-0.010285,"MEAN_MOTION_DDOT":0,"SEMIMAJOR_AXIS":6729.01,"PERIOD":91.556,"APOAPSIS":351.655,"PERIAPSIS":350.094,"OBJECT_TYPE":"PAYLOAD","RCS_SIZE":"LARGE","COUNTRY_CODE":"US","LAUNCH_DATE":"2021-03-11","SITE":"AFETR","DECAY_DATE":null,"DECAYED":0,"FILE":3022491,"GP_ID":175887973,"TLE_LINE0":"0
        STARLINK-2423","TLE_LINE1":"1 47833U 21018AY  21111.58334491 -.01028500  00000-0
        -82585-2 0  9998","TLE_LINE2":"2 47833  53.0489 343.0679 0001160  77.9470
        144.7525 15.72809105  1827"},"version":"v1.0","launch":"600f9a718f798e2a4d5f979d","longitude":58.24032172442986,"latitude":-36.085528205504225,"height_km":366.19254808537426,"velocity_kms":7.68921131855814,"id":"6053aba67554c9000609a66e"},{"spaceTrack":{"CCSDS_OMM_VERS":"2.0","COMMENT":"GENERATED
        VIA SPACE-TRACK.ORG API","CREATION_DATE":"2021-04-21T22:36:12","ORIGINATOR":"18
        SPCS","OBJECT_NAME":"STARLINK-2410","OBJECT_ID":"2021-018AQ","CENTER_NAME":"EARTH","REF_FRAME":"TEME","TIME_SYSTEM":"UTC","MEAN_ELEMENT_THEORY":"SGP4","EPOCH":"2021-04-21T20:00:01.999872","MEAN_MOTION":15.71174439,"ECCENTRICITY":0.0001257,"INCLINATION":53.049,"RA_OF_ASC_NODE":341.8479,"ARG_OF_PERICENTER":67.5327,"MEAN_ANOMALY":124.2386,"EPHEMERIS_TYPE":0,"CLASSIFICATION_TYPE":"U","NORAD_CAT_ID":47825,"ELEMENT_SET_NO":999,"REV_AT_EPOCH":744,"BSTAR":-0.0095222,"MEAN_MOTION_DOT":-0.01097815,"MEAN_MOTION_DDOT":0,"SEMIMAJOR_AXIS":6733.676,"PERIOD":91.651,"APOAPSIS":356.388,"PERIAPSIS":354.695,"OBJECT_TYPE":"PAYLOAD","RCS_SIZE":"LARGE","COUNTRY_CODE":"US","LAUNCH_DATE":"2021-03-11","SITE":"AFETR","DECAY_DATE":null,"DECAYED":0,"FILE":3022602,"GP_ID":175890156,"TLE_LINE0":"0
        STARLINK-2410","TLE_LINE1":"1 47825U 21018AQ  21111.83335648 -.01097815  00000-0
        -95222-2 0  9999","TLE_LINE2":"2 47825  53.0490 341.8479 0001257  67.5327
        124.2386 15.71174439  7443"},"version":"v1.0","launch":"600f9a718f798e2a4d5f979d","longitude":50.284494960310866,"latitude":-41.2590040250427,"height_km":371.533214715113,"velocity_kms":7.686123197690758,"id":"6053aba67554c9000609a672"},{"spaceTrack":{"CCSDS_OMM_VERS":"2.0","COMMENT":"GENERATED
        VIA SPACE-TRACK.ORG API","CREATION_DATE":"2021-04-21T19:20:26","ORIGINATOR":"18
